"Saturn" "Sol"
{
	Texture "saturn.*"
	Color [ 1.0 1.0 0.85 ]
	HazeColor [ 0.0 0.0 1 ]
	HazeDensity 0.25
	Radius 60268 # equatorial
	Oblateness 0.0980

	CustomOrbit "vsop87-saturn"
	EllipticalOrbit
	{
	Period           29.4577
	SemiMajorAxis     9.5371
	Eccentricity      0.0542
	Inclination       2.4845
	AscendingNode   113.715
	LongOfPericenter 92.432
        MeanLongitude    49.944
	}

	Atmosphere {
		Height 300
		Lower [ 0.8 0.75 0.65 ]
		Upper [ 0.6 0.55 0.45 ]
		Sky [ 0.8 0.8 0.5 ]
	}

	RotationPeriod        10.65622 # System III (magnetic field)
	Obliquity             28.049   # 28.052   # old value: 26.73
	EquatorAscendingNode 169.530   # 168.8112 # 169.53
        RotationOffset       358.922   # correct System III prime meridian

	Albedo            0.50

	Rings {
		Inner   74660
		Outer  140220
		Texture "saturn-rings.png"

		# Bjorn Jonsson <http://www.mmedia.is/~bjj> recommends this
		# color for rendering Saturn's rings.  No idea if it's right,
		# but it looks nice
		Color  [ 1.0 0.88 0.82 ]
	}
}

"Prometheus" "Sol/Saturn"
{
	Texture	 	"prometheus.*"
	Mesh		"prometheus.3ds"
	Radius    74 # maximum semi-axis
	MeshCenter [ 0.75 -2.68 1.064 ]

	EllipticalOrbit
	{
	Period		0.612986
	SemiMajorAxis	139350
	Eccentricity	0.0023
	Inclination	0.000
	LongOfPericenter 32.879	# J2000.0 
	MeanAnomaly     22.695	#
	}

	RotationOffset  	236

	Albedo 0.6
}

"Pandora" "Sol/Saturn"
{
	Texture	 	"asteroid.jpg"
	Mesh		"pandora.3ds"
	Radius		57 # maximum semi-axis
	MeshCenter [ 0.692 -1.454 -0.422 ]

	EllipticalOrbit
	{
	Period		0.628804
	SemiMajorAxis	141700
	Eccentricity	0.0044
	Inclination	0.000
	LongOfPericenter 234.458 # J2000.0
	MeanAnomaly     62.483	 #
	}

	RotationOffset          117

	Albedo 0.5
}

"Epimetheus" "Sol/Saturn"
{
	Texture	 	"epimetheus.*"
	Mesh		"epimetheus.3ds"
	Radius    72 # maximum semi-axis
	MeshCenter [ -5.196 -2.241 -1.878 ]

	EllipticalOrbit
	{
	Period		0.694590
	SemiMajorAxis	151422
	Eccentricity	0.0205
	Inclination	0.337	#
	AscendingNode	149.880	#
	ArgOfPericenter	86.905	# J2000.0
	MeanAnomaly     192.354	#
	}

	RotationOffset  	249

	Albedo 0.5
}

AltSurface "limit of knowledge" "Sol/Saturn/Epimetheus"
{
	Texture "epimetheus-lok.*"
}

"Janus" "Sol/Saturn"
{
	Texture	 	"janus.*"
	Mesh		"janus.3ds"
	Radius    96 # maximum semi-axis
	MeshCenter [ -1.552 1.358 2.257 ]

	EllipticalOrbit
	{
	Period		0.694590
	SemiMajorAxis	151472
	Eccentricity	0.0073
	Inclination	0.168	#
	AscendingNode	120.557	#
	ArgOfPericenter	43.066	# J2000.0
	MeanAnomaly     79.973	#
	}

	RotationOffset  	64

	Albedo 0.6
}

"Mimas" "Sol/Saturn"
{
	Texture "mimas.*"
	# Texture "white.jpg"
	# BumpMap "mimasbump.jpg"
	# BumpHeight 10.0
	Color [ 0.75 0.63 0.58 ]
	BlendTexture true
	Radius    198.6

	CustomOrbit "mimas"
	EllipticalOrbit
	{
	Period         0.9424218
	SemiMajorAxis  185520
	Eccentricity   0.0202
	Inclination    1.53
	MeanAnomaly    23
	}

	Obliquity		  1.5 #J2000.0
	EquatorAscendingNode	137.8 #J2000.0
	RotationOffset		190.7 #J2000.0

	Albedo         0.5
}

AltSurface "limit of knowledge" "Sol/Saturn/Mimas"
{
	Texture "mimas.*"
	OverlayTexture "mimas-lok-mask.png"
	Color [ 0.75 0.63 0.58 ]
	BlendTexture true
}

"Enceladus" "Sol/Saturn"
{
	Texture "enceladus.*"
	Radius     249.4

	CustomOrbit "enceladus"
	EllipticalOrbit
	{
	Period         1.370218
	SemiMajorAxis  238020
	Eccentricity   0.0045
	Inclination    0.02
	MeanAnomaly    215
	}

	Obliquity		  0.0
	RotationOffset		322.9

	Albedo         0.99
}

"Tethys" "Sol/Saturn"
{
	Texture "tethys.*"
	Radius     529.9

	CustomOrbit "tethys"
	EllipticalOrbit
	{
	Period         1.887802
	SemiMajorAxis  294660
	Eccentricity   0.0
	Inclination    1.09
	MeanAnomaly    98
	}

	Obliquity		  0.0
	RotationOffset		330.6

	Albedo         0.9
}

"Dione" "Sol/Saturn"
{
	Texture "dione.*"
	Radius     559

	CustomOrbit "dione"
	EllipticalOrbit
	{
	Period         2.736915
	SemiMajorAxis  377400
	Eccentricity   0.0022
	Inclination    0.02
	MeanAnomaly    310
	}

	Obliquity		  0.0
	RotationOffset		317.1

	Albedo         0.7
}

"Rhea" "Sol/Saturn"
{
	Texture "rhea.*"
	Radius     764

	CustomOrbit "rhea"
	EllipticalOrbit
	{
	Period         4.517500
	SemiMajorAxis  527040
	Eccentricity   0.0010
	Inclination    0.35
	MeanAnomaly    190
	}

	Obliquity		  0.0
	RotationOffset 		195.0

	Albedo         0.7
}

"Titan" "Sol/Saturn"
{
	Texture "titan.*"
	Color [ 1.0 0.9 0.75 ]
	HazeColor [ 0.2 0.5 1 ]
	HazeDensity 1
	Radius   2575

	Atmosphere {
		Height 60
		Lower [ 0.8 0.4 0.1 ]
		Upper [ 0.0 0.0 0.9 ]
		Sky [ 0.8 0.4 0.1 ]
	}

	CustomOrbit "titan"
	EllipticalOrbit
	{
	Period        15.945421
	SemiMajorAxis  1221850
	Eccentricity   0.0292
	Inclination    0.33
	MeanAnomaly    120
	}

	Obliquity		  0.6
	EquatorAscendingNode	186.6
	RotationOffset		318.9

	Albedo         0.21
}

"Hyperion" "Sol/Saturn"
{
	Mesh "hyperion.3ds"
	Texture "hyperion.*" # Phil Stooke
	Radius    171 # maximum semi-axis
	MeshCenter [ -3.424 10.938 4.498 ]

	CustomOrbit "hyperion"
	EllipticalOrbit
	{
	Period        21.276609
	SemiMajorAxis  1481100
	Eccentricity   0.1042
	Inclination    0.43
	MeanAnomaly    350
	}

	# The rotation of Hyperion is chaotic; we don't attempt to model
	# the rotation exactly, but instead use non-zero precession rate to
	# make the rotation appear somewhat irregular.

	Obliquity       	 61    # pole at time of 
	EquatorAscendingNode	145    # Voyager 2 encounter
	RotationPeriod  	120    # 5-day best-fit rotation
	PrecessionRate  	 51.43 # 7-day wobble in light curve

	Albedo         0.3
}

AltSurface "limit of knowledge" "Sol/Saturn/Hyperion"
{
	Texture "hyperion-lok.*" # Phil Stooke
}

"Iapetus" "Sol/Saturn"
{
	Texture "iapetus.*"
	Radius     718

	CustomOrbit "iapetus"
	EllipticalOrbit
	{
	Period         79.330183
	SemiMajorAxis  3561300
	Eccentricity   0.0283
	Inclination    7.52
	MeanAnomaly    245
	}

	Obliquity		 15.5
	EquatorAscendingNode	213.7
	RotationOffset		 14.9

	Albedo         0.2
}

"Phoebe" "Sol/Saturn"
{
	Mesh "roughsphere.cms"
	Texture "asteroid.jpg"
	Radius     110

	EllipticalOrbit
	{
	Epoch           2453168.0  # 2004 June 11 (Cassini encounter)
	Period          548.21     # mean
	SemiMajorAxis   12916143   # at epoch
	Eccentricity      0.152920 # at epoch
	Inclination     151.659503 # at epoch
	AscendingNode    14.379445 # at epoch
	ArgOfPericenter 281.133384 # at epoch
	MeanAnomaly      31.543967 # at epoch
	}

	RotationPeriod		  9.282
	Obliquity		 17.4
	EquatorAscendingNode	259.9
	RotationOffset		320.3

	Albedo         0.05
}


"Uranus" "Sol"
{
	Texture "uranus.*"
	Color [ 0.75 0.85 1.0 ]
	HazeColor [ 0.5 0.8 1.0 ]
	HazeDensity 0.2
	Radius 25559 # equatorial
	Oblateness 0.0229

	CustomOrbit "vsop87-uranus"
	EllipticalOrbit
	{
	Period           84.0139
	SemiMajorAxis    19.1913
	Eccentricity      0.0472
	Inclination       0.7699
	AscendingNode     74.230
	LongOfPericenter 170.964
        MeanLongitude    313.232
	}

	Atmosphere {
		Height 130
		Lower [ 0.75 0.85 1.0 ]
		Upper [ 0.5 0.8 0.9 ]
		Sky [ 0.6 0.7 0.7 ]

	}

	RotationPeriod        17.24 # System III (magnetic field)
	Obliquity             97.81
	EquatorAscendingNode 167.76
	RotationOffset       331.18 # correct System III prime meridian

	Albedo            0.66

	Rings {
		Inner  41837
		Outer  51179
		Texture "uranus-rings.png"
	}
}

"Miranda" "Sol/Uranus"
{
	Texture "miranda.*"
	Radius   235.8

	CustomOrbit "miranda"
	EllipticalOrbit
	{
	Period         1.413
	SemiMajorAxis  129800
	Eccentricity   0.0027
	Inclination    4.22
	MeanAnomaly    120
	}

	RotationPeriod		 33.92350159 # enforce sync rotation
	Obliquity		  0.0
	RotationOffset 		144.3

	Albedo         0.32
}

AltSurface "limit of knowledge" "Sol/Uranus/Miranda"
{
	Texture "miranda.*"
	OverlayTexture "miranda-lok-mask.png"
}

"Ariel" "Sol/Uranus"
{
	Texture "ariel.*"
	Radius   578.9

	CustomOrbit "ariel"
	EllipticalOrbit
	{
	Period         2.520
	SemiMajorAxis  191200
	Eccentricity   0.0034
	Inclination    0.31
	MeanAnomaly    56
	}

	RotationPeriod		 60.48909292 # enforce sync rotation
	Obliquity		  0.0
	RotationOffset 		 18.8

	Albedo         0.39
}

AltSurface "limit of knowledge" "Sol/Uranus/Ariel"
{
	Texture "ariel.*"
	OverlayTexture "ariel-lok-mask.png"
}

"Umbriel" "Sol/Uranus"
{
	Texture "umbriel.*"
	Radius   584.7

	CustomOrbit "umbriel"
	EllipticalOrbit
	{
	Period         4.144
	SemiMajorAxis  266000
	Eccentricity   0.0050
	Inclination    0.36
	MeanAnomaly    280
	}

	RotationPeriod		 99.46022991 # enforce sync rotation
	Obliquity		  0.0
	RotationOffset 		 66.9

	Albedo         0.21
}

AltSurface "limit of knowledge" "Sol/Uranus/Umbriel"
{
	Texture "umbriel.*"
	OverlayTexture "umbriel-lok-mask.png"
}

"Titania" "Sol/Uranus"
{
	Texture "titania.*"
	Radius   788.9

	CustomOrbit "titania"
	EllipticalOrbit
	{
	Period         8.706
	SemiMajorAxis  435800
	Eccentricity   0.0022
	Inclination    0.10
	MeanAnomaly    30
	}

	RotationPeriod		208.94077099 # enforce sync rotation
	Obliquity		  0.0
	RotationOffset 		 97.2

	Albedo         0.27
}

AltSurface "limit of knowledge" "Sol/Uranus/Titania"
{
	Texture "titania.*"
	OverlayTexture "titania-lok-mask.png"
}

"Oberon" "Sol/Uranus"
{
	Texture "oberon.*"
	Radius   761.4

	CustomOrbit "oberon"
	EllipticalOrbit
	{
	Period        13.463
	SemiMajorAxis  583600
	Eccentricity   0.0008
	Inclination    0.10
	MeanAnomaly    150
	}

	RotationPeriod		323.117567539 # enforce sync rotation
	Obliquity		  0.0
	RotationOffset 		168.2

	Albedo         0.23
}

AltSurface "limit of knowledge" "Sol/Uranus/Oberon"
{
	Texture "oberon.*"
	OverlayTexture "oberon-lok-mask.png"
}


